[{"OBJECT_NAME":"STARLINK-34086","OBJECT_ID":"2025-216A","EPOCH":"2026-03-09T22:41:19.344192","MEAN_MOTION":15.30189879,"ECCENTRICITY":0.00017658,"INCLINATION":53.1596,"RA_OF_ASC_NODE":331.6461,"ARG_OF_PERICENTER":139.2059,"MEAN_ANOMALY":220.9074,"EPHEMERIS_TYPE":0,"CLASSIFICATION_TYPE":"U","NORAD_CAT_ID":65734,"ELEMENT_SET_NO":999,"REV_AT_EPOCH":2660,"BSTAR":0.0009351833,"MEAN_MOTION_DOT":0.00027432,"MEAN_MOTION_DDOT":0},{"OBJECT_NAME":"NOAA 16 DEB","OBJECT_ID":"2000-055BK","EPOCH":"2026-03-09T02:17:10.174560","MEAN_MOTION":15.30191008,"ECCENTRICITY":0.00052528,"INCLINATION":98.9831,"RA_OF_ASC_NODE":305.6383,"ARG_OF_PERICENTER":26.64,"MEAN_ANOMALY":333.5104,"EPHEMERIS_TYPE":0,"CLASSIFICATION_TYPE":"U","NORAD_CAT_ID":41128,"ELEMENT_SET_NO":999,"REV_AT_EPOCH":53406,"BSTAR":0.017668961,"MEAN_MOTION_DOT":0.00549039,"MEAN_MOTION_DDOT":0}]
